{
    "links": {
        "self": "http://www.neowsapp.com/rest/v1/neo/3363698?api_key=iIulBulltgU6a56xZRHN4H3l9WmuAYTsLGpBGhQ2"
    },
    "id": "3363698",
    "neo_reference_id": "3363698",
    "name": "(2006 XQ4)",
    "designation": "2006 XQ4",
    "nasa_jpl_url": "http://ssd.jpl.nasa.gov/sbdb.cgi?sstr=3363698",
    "absolute_magnitude_h": 26.1,
    "estimated_diameter": {
        "kilometers": {
            "estimated_diameter_min": 0.0160160338,
            "estimated_diameter_max": 0.0358129403
        },
        "meters": {
            "estimated_diameter_min": 16.0160337979,
            "estimated_diameter_max": 35.8129403019
        },
        "miles": {
            "estimated_diameter_min": 0.0099518989,
            "estimated_diameter_max": 0.0222531225
        },
        "feet": {
            "estimated_diameter_min": 52.5460443254,
            "estimated_diameter_max": 117.4965270602
        }
    },
    "is_potentially_hazardous_asteroid": false,
    "close_approach_data": [
        {
            "close_approach_date": "2006-12-16",
            "close_approach_date_full": "2006-Dec-16 04:11",
            "epoch_date_close_approach": 1166242260000,
            "relative_velocity": {
                "kilometers_per_second": "4.5968160067",
                "kilometers_per_hour": "16548.5376241864",
                "miles_per_hour": "10282.6177254285"
            },
            "miss_distance": {
                "astronomical": "0.0546181151",
                "lunar": "21.2464467739",
                "kilometers": "8170753.682374837",
                "miles": "5077070.9113212706"
            },
            "orbiting_body": "Earth"
        }
    ],
    "orbital_data": {
        "orbit_id": "8",
        "orbit_determination_date": "2017-04-06 09:07:20",
        "first_observation_date": "2006-12-15",
        "last_observation_date": "2006-12-21",
        "data_arc_in_days": 6,
        "observations_used": 42,
        "orbit_uncertainty": "8",
        "minimum_orbit_intersection": ".0523954",
        "jupiter_tisserand_invariant": "4.542",
        "epoch_osculation": "2454087.5",
        "eccentricity": ".2965344120489656",
        "semi_major_axis": "1.473621667412069",
        "inclination": "6.150666305432623",
        "ascending_node_longitude": "261.0394310389405",
        "orbital_period": "653.3974341557246",
        "perihelion_distance": "1.036642132683415",
        "perihelion_argument": "182.6916703394712",
        "aphelion_distance": "1.910601202140723",
        "perihelion_time": "2454086.231373103955",
        "mean_anomaly": ".6989707315981794",
        "mean_motion": ".5509663509241773",
        "equinox": "J2000",
        "orbit_class": {
            "orbit_class_type": "AMO",
            "orbit_class_description": "Near-Earth asteroid orbits similar to that of 1221 Amor",
            "orbit_class_range": "1.017 AU < q (perihelion) < 1.3 AU"
        }
    },
    "is_sentry_object": false
}